{
  "01": {
    "district": "Южный федеральный округ",
    "district_en": "South federal district",
    "name": "Республика Адыгея",
    "name_en": "Adygey"
  },
  "02": {
    "district": "Приволжский федеральный округ",
    "district_en": "Volga Federal District",
    "name": "Республика Башкортостан",
    "name_en": "Bashkortostan"
  },
  "03": {
    "district": "Сибирский федеральный округ",
    "district_en": "Siberian Federal District",
    "name": "Республика Бурятия",
    "name_en": "Buryat"
  },
  "04": {
    "district": "Сибирский федеральный округ",
    "district_en": "Siberian Federal District",
    "name": "Республика Алтай",
    "name_en": "Gorno-Altay"
  },
  "05": {
    "district": "Северо-Кавказский федеральный округ",
    "district_en": "North Caucasus federal district",
    "name": "Республика Дагестан",
    "name_en": "Dagestan"
  },
  "06": {
    "district": "Северо-Кавказский федеральный округ",
    "district_en": "North Caucasus federal district",
    "name": "Республика Ингушетия",
    "name_en": "Ingush"
  },
  "07": {
    "district": "Северо-Кавказский федеральный округ",
    "district_en": "North Caucasus federal district",
    "name": "Кабардино-Балкарская республика",
    "name_en": "Kabardin-Balkar"
  },
  "08": {
    "district": "Южный федеральный округ",
    "district_en": "South federal district",
    "name": "Республика Калмыкия",
    "name_en": "Kalmyk"
  },
  "09": {
    "district": "Северо-Кавказский федеральный округ",
    "district_en": "North Caucasus federal district",
    "name": "Карачаево-Черкесская республика",
    "name_en": "Karachay-Cherkess"
  },
  "10": {
    "district": "Северо-Западный федеральный округ",
    "district_en": "Northwestern Federal District",
    "name": "Республика Карелия",
    "name_en": "Karelia"
  },
  "11": {
    "district": "Северо-Западный федеральный округ",
    "district_en": "Northwestern Federal District",
    "name": "Республика Коми",
    "name_en": "Komi"
  },
  "12": {
    "district": "Приволжский федеральный округ",
    "district_en": "Volga Federal District",
    "name": "Республика Марий Эл",
    "name_en": "Mariy-El"
  },
  "13": {
    "district": "Приволжский федеральный округ",
    "district_en": "Volga Federal District",
    "name": "Республика Мордовия",
    "name_en": "Mordovia"
  },
  "14": {
    "district": "Дальневосточный федеральный округ",
    "district_en": "Far Eastern Federal District",
    "name": "Республика Саха (Якутия)",
    "name_en": "Sakha (Yakutia)"
  },
  "15": {
    "district": "Северо-Кавказский федеральный округ",
    "district_en": "North Caucasus federal district",
    "name": "Республика Северная Осетия — Алания",
    "name_en": "North Ossetia"
  },
  "16": {
    "district": "Приволжский федеральный округ",
    "district_en": "Volga Federal District",
    "name": "Республика Татарстан",
    "name_en": "Tatarstan"
  },
  "17": {
    "district": "Сибирский федеральный округ",
    "district_en": "Siberian Federal District",
    "name": "Республика Тыва",
    "name_en": "Tuva"
  },
  "18": {
    "district": "Приволжский федеральный округ",
    "district_en": "Volga Federal District",
    "name": "Удмуртская республика",
    "name_en": "Udmurt"
  },
  "19": {
    "district": "Сибирский федеральный округ",
    "district_en": "Siberian Federal District",
    "name": "Республика Хакасия",
    "name_en": "Khakass"
  },
  "20": {
    "district": "Северо-Кавказский федеральный округ",
    "district_en": "North Caucasus federal district",
    "name": "Чеченская республика",
    "name_en": "Chechnya"
  },
  "21": {
    "district": "Приволжский федеральный округ",
    "district_en": "Volga Federal District",
    "name": "Чувашская республика",
    "name_en": "Chuvash"
  },
  "22": {
    "district": "Сибирский федеральный округ",
    "district_en": "Siberian Federal District",
    "name": "Алтайский край",
    "name_en": "Altay"
  },
  "23": {
    "district": "Южный федеральный округ",
    "district_en": "South federal district",
    "name": "Краснодарский край",
    "name_en": "Krasnodar"
  },
  "24": {
    "district": "Сибирский федеральный округ",
    "district_en": "Siberian Federal District",
    "name": "Красноярский край",
    "name_en": "Krasnoyarsk"
  },
  "25": {
    "district": "Дальневосточный федеральный округ",
    "district_en": "Far Eastern Federal District",
    "name": "Приморский край",
    "name_en": "Primor'ye"
  },
  "26": {
    "district": "Северо-Кавказский федеральный округ",
    "district_en": "North Caucasus federal district",
    "name": "Ставропольский край",
    "name_en": "Stavropol'"
  },
  "27": {
    "district": "Дальневосточный федеральный округ",
    "district_en": "Far Eastern Federal District",
    "name": "Хабаровский край",
    "name_en": "Khabarovsk"
  },
  "28": {
    "district": "Дальневосточный федеральный округ",
    "district_en": "Far Eastern Federal District",
    "name": "Амурская область",
    "name_en": "Amur"
  },
  "29": {
    "district": "Северо-Западный федеральный округ",
    "district_en": "Northwestern Federal District",
    "name": "Архангельская область",
    "name_en": "Arkhangel'sk"
  },
  "30": {
    "district": "Южный федеральный округ",
    "district_en": "South federal district",
    "name": "Астраханская область",
    "name_en": "Astrakhan'"
  },
  "31": {
    "district": "Центральный федеральный округ",
    "district_en": "Central Federal District",
    "name": "Белгородская область",
    "name_en": "Belgorod"
  },
  "32": {
    "district": "Центральный федеральный округ",
    "district_en": "Central Federal District",
    "name": "Брянская область",
    "name_en": "Bryansk"
  },
  "33": {
    "district": "Центральный федеральный округ",
    "district_en": "Central Federal District",
    "name": "Владимирская область",
    "name_en": "Vladimir"
  },
  "34": {
    "district": "Южный федеральный округ",
    "district_en": "South federal district",
    "name": "Волгоградская область",
    "name_en": "Volgograd"
  },
  "35": {
    "district": "Северо-Западный федеральный округ",
    "district_en": "Northwestern Federal District",
    "name": "Вологодская область",
    "name_en": "Vologda"
  },
  "36": {
    "district": "Центральный федеральный округ",
    "district_en": "Central Federal District",
    "name": "Воронежская область",
    "name_en": "Voronezh"
  },
  "37": {
    "district": "Центральный федеральный округ",
    "district_en": "Central Federal District",
    "name": "Ивановская область",
    "name_en": "Ivanovo"
  },
  "38": {
    "district": "Сибирский федеральный округ",
    "district_en": "Siberian Federal District",
    "name": "Иркутская область",
    "name_en": "Irkutsk"
  },
  "39": {
    "district": "Северо-Западный федеральный округ",
    "district_en": "Northwestern Federal District",
    "name": "Калининградская область",
    "name_en": "Kaliningrad"
  },
  "40": {
    "district": "Центральный федеральный округ",
    "district_en": "Central Federal District",
    "name": "Калужская область",
    "name_en": "Kaluga"
  },
  "41": {
    "district": "Дальневосточный федеральный округ",
    "district_en": "Far Eastern Federal District",
    "name": "Камчатский край",
    "name_en": "Kamchatka"
  },
  "42": {
    "district": "Сибирский федеральный округ",
    "district_en": "Siberian Federal District",
    "name": "Кемеровская область",
    "name_en": "Kemerovo"
  },
  "43": {
    "district": "Приволжский федеральный округ",
    "district_en": "Volga Federal District",
    "name": "Кировская область",
    "name_en": "Kirov"
  },
  "44": {
    "district": "Центральный федеральный округ",
    "district_en": "Central Federal District",
    "name": "Костромская область",
    "name_en": "Kostroma"
  },
  "45": {
    "district": "Уральский федеральный округ",
    "district_en": "Ural Federal District",
    "name": "Курганская область",
    "name_en": "Kurgan"
  },
  "46": {
    "district": "Центральный федеральный округ",
    "district_en": "Central Federal District",
    "name": "Курская область",
    "name_en": "Kursk"
  },
  "47": {
    "district": "Северо-Западный федеральный округ",
    "district_en": "Northwestern Federal District",
    "name": "Ленинградская область",
    "name_en": "Leningrad"
  },
  "48": {
    "district": "Центральный федеральный округ",
    "district_en": "Central Federal District",
    "name": "Липецкая область",
    "name_en": "Lipetsk"
  },
  "49": {
    "district": "Дальневосточный федеральный округ",
    "district_en": "Far Eastern Federal District",
    "name": "Магаданская область",
    "name_en": "Maga Buryatdan"
  },
  "50": {
    "district": "Центральный федеральный округ",
    "district_en": "Central Federal District",
    "name": "Московская область",
    "name_en": "Moskovsskaya"
  },
  "51": {
    "district": "Северо-Западный федеральный округ",
    "district_en": "Northwestern Federal District",
    "name": "Мурманская область",
    "name_en": "Murmansk"
  },
  "52": {
    "district": "Приволжский федеральный округ",
    "district_en": "Volga Federal District",
    "name": "Нижегородская область",
    "name_en": "Nizhegorod"
  },
  "53": {
    "district": "Северо-Западный федеральный округ",
    "district_en": "Northwestern Federal District",
    "name": "Новгородская область",
    "name_en": "Novgorod"
  },
  "54": {
    "district": "Сибирский федеральный округ",
    "district_en": "Siberian Federal District",
    "name": "Новосибирская область",
    "name_en": "Novosibirsk"
  },
  "55": {
    "district": "Сибирский федеральный округ",
    "district_en": "Siberian Federal District",
    "name": "Омская область",
    "name_en": "Omsk"
  },
  "56": {
    "district": "Приволжский федеральный округ",
    "district_en": "Volga Federal District",
    "name": "Оренбургская область",
    "name_en": "Orenburg"
  },
  "57": {
    "district": "Центральный федеральный округ",
    "district_en": "Central Federal District",
    "name": "Орловская область",
    "name_en": "Orel"
  },
  "58": {
    "district": "Приволжский федеральный округ",
    "district_en": "Volga Federal District",
    "name": "Пензенская область",
    "name_en": "Penza"
  },
  "59": {
    "district": "Приволжский федеральный округ",
    "district_en": "Volga Federal District",
    "name": "Пермский край",
    "name_en": "Perm'"
  },
  "60": {
    "district": "Северо-Западный федеральный округ",
    "district_en": "Northwestern Federal District",
    "name": "Псковская область",
    "name_en": "Pskov"
  },
  "61": {
    "district": "Южный федеральный округ",
    "district_en": "South federal district",
    "name": "Ростовская область",
    "name_en": "Rostov"
  },
  "62": {
    "district": "Центральный федеральный округ",
    "district_en": "Central Federal District",
    "name": "Рязанская область",
    "name_en": "Ryazan'"
  },
  "63": {
    "district": "Приволжский федеральный округ",
    "district_en": "Volga Federal District",
    "name": "Самарская область",
    "name_en": "Samara"
  },
  "64": {
    "district": "Приволжский федеральный округ",
    "district_en": "Volga Federal District",
    "name": "Саратовская область",
    "name_en": "Saratov"
  },
  "65": {
    "district": "Дальневосточный федеральный округ",
    "district_en": "Far Eastern Federal District",
    "name": "Сахалинская область",
    "name_en": "Sakhalin"
  },
  "66": {
    "district": "Уральский федеральный округ",
    "district_en": "Ural Federal District",
    "name": "Свердловская область",
    "name_en": "Sverdlovsk"
  },
  "67": {
    "district": "Центральный федеральный округ",
    "district_en": "Central Federal District",
    "name": "Смоленская область",
    "name_en": "Smolensk"
  },
  "68": {
    "district": "Центральный федеральный округ",
    "district_en": "Central Federal District",
    "name": "Тамбовская область",
    "name_en": "Tambov"
  },
  "69": {
    "district": "Центральный федеральный округ",
    "district_en": "Central Federal District",
    "name": "Тверская область",
    "name_en": "Tver'"
  },
  "70": {
    "district": "Сибирский федеральный округ",
    "district_en": "Siberian Federal District",
    "name": "Томская область",
    "name_en": "Tomsk"
  },
  "71": {
    "district": "Центральный федеральный округ",
    "district_en": "Central Federal District",
    "name": "Тульская область",
    "name_en": "Tula"
  },
  "72": {
    "district": "Уральский федеральный округ",
    "district_en": "Ural Federal District",
    "name": "Тюменская область",
    "name_en": "Tyumen'"
  },
  "73": {
    "district": "Приволжский федеральный округ",
    "district_en": "Volga Federal District",
    "name": "Ульяновская область",
    "name_en": "Ul'yanovsk"
  },
  "74": {
    "district": "Уральский федеральный округ",
    "district_en": "Ural Federal District",
    "name": "Челябинская область",
    "name_en": "Chelyabinsk"
  },
  "75": {
    "district": "Сибирский федеральный округ",
    "district_en": "Siberian Federal District",
    "name": "Забайкальский край",
    "name_en": "Chita"
  },
  "76": {
    "district": "Центральный федеральный округ",
    "district_en": "Central Federal District",
    "name": "Ярославская область",
    "name_en": "Yaroslavl'"
  },
  "77": {
    "district": "Центральный федеральный округ",
    "district_en": "Central Federal District",
    "name": "Москва",
    "name_en": "Moskva"
  },
  "78": {
    "district": "Северо-Западный федеральный округ",
    "district_en": "Northwestern Federal District",
    "name": "Санкт-Петербург",
    "name_en": "City of St. Petersburg"
  },
  "79": {
    "district": "Дальневосточный федеральный округ",
    "district_en": "Far Eastern Federal District",
    "name": "Еврейская автономная область",
    "name_en": "Yevrey"
  },
  "80": {
    "district": "Сибирский федеральный округ",
    "district_en": "Siberian Federal District",
    "name": "Забайкальский край",
    "name_en": "Chita"
  },
  "81": {
    "district": "Приволжский федеральный округ",
    "district_en": "Volga Federal District",
    "name": "Пермский край",
    "name_en": "Perm'"
  },
  "82": {
    "district": "Дальневосточный федеральный округ",
    "district_en": "Far Eastern Federal District",
    "name": "Камчатский край",
    "name_en": "Kamchatka"
  },
  "83": {
    "district": "Северо-Западный федеральный округ",
    "district_en": "Northwestern Federal District",
    "name": "Ненецкий автономный округ",
    "name_en": "Nenets"
  },
  "84": {
    "district": "Сибирский федеральный округ",
    "district_en": "Siberian Federal District",
    "name": "Красноярский край",
    "name_en": "Krasnoyarsk"
  },
  "85": {
    "district": "Сибирский федеральный округ",
    "district_en": "Siberian Federal District",
    "name": "Иркутская область",
    "name_en": "Irkutsk"
  },
  "86": {
    "district": "Уральский федеральный округ",
    "district_en": "Ural Federal District",
    "name": "Ханты-Мансийский автономный округ - Югра",
    "name_en": "Khanty-Mansiy"
  },
  "87": {
    "district": "Дальневосточный федеральный округ",
    "district_en": "Far Eastern Federal District",
    "name": "Чукотский автономный округ",
    "name_en": "Chukchi Autonomous Okrug"
  },
  "88": {
    "district": "Сибирский федеральный округ",
    "district_en": "Siberian Federal District",
    "name": "Красноярский край",
    "name_en": "Krasnoyarsk"
  },
  "89": {
    "district": "Уральский федеральный округ",
    "district_en": "Ural Federal District",
    "name": "Ямало-Ненецкий автономный округ",
    "name_en": "Yamal-Nenets"
  },
  "91": {
    "district": "Южный федеральный округ",
    "district_en": "South federal district",
    "name": "Республика Крым",
    "name_en": "Crimea"
  },
  "92": {
    "district": "Южный федеральный округ",
    "district_en": "South federal district",
    "name": "Севастополь",
    "name_en": "Sevastopol'"
  },
  "93": {
    "district": "Приволжский федеральный округ",
    "district_en": "Volga Federal District",
    "name": "Ульяновская область",
    "name_en": "Ul'yanovsk"
  },
  "94": {
    "district": "Приволжский федеральный округ",
    "district_en": "Volga Federal District",
    "name": "Саратовская область",
    "name_en": "Saratov"
  },
  "97": {
    "district": "Центральный федеральный округ",
    "district_en": "Central Federal District",
    "name": "Москва",
    "name_en": "Moskva"
  },
  "99": {
    "district": "-",
    "district_en": "-",
    "name": "Не определено",
    "name_en": "-"
  }
}